[{"OBJECT_NAME":"STARLINK-6140","OBJECT_ID":"2023-090L","EPOCH":"2026-03-09T22:54:44.119584","MEAN_MOTION":15.02533618,"ECCENTRICITY":0.00012835,"INCLINATION":43.0036,"RA_OF_ASC_NODE":273.1778,"ARG_OF_PERICENTER":261.6443,"MEAN_ANOMALY":98.4254,"EPHEMERIS_TYPE":0,"CLASSIFICATION_TYPE":"U","NORAD_CAT_ID":57111,"ELEMENT_SET_NO":999,"REV_AT_EPOCH":15045,"BSTAR":4.2759088e-5,"MEAN_MOTION_DOT":3.74e-6,"MEAN_MOTION_DDOT":0},{"OBJECT_NAME":"CZ-6A DEB","OBJECT_ID":"2024-140KH","EPOCH":"2026-03-09T14:59:57.464160","MEAN_MOTION":15.05079233,"ECCENTRICITY":0.0091207,"INCLINATION":89.0655,"RA_OF_ASC_NODE":284.096,"ARG_OF_PERICENTER":124.4022,"MEAN_ANOMALY":236.5882,"EPHEMERIS_TYPE":0,"CLASSIFICATION_TYPE":"U","NORAD_CAT_ID":60878,"ELEMENT_SET_NO":999,"REV_AT_EPOCH":8457,"BSTAR":0.0027733,"MEAN_MOTION_DOT":0.00043481,"MEAN_MOTION_DDOT":0}]
